[{"OBJECT_NAME":"STARLINK-4507","OBJECT_ID":"2022-097R","EPOCH":"2026-03-09T09:05:03.393600","MEAN_MOTION":15.08832174,"ECCENTRICITY":8.815e-5,"INCLINATION":53.2164,"RA_OF_ASC_NODE":125.8641,"ARG_OF_PERICENTER":80.4307,"MEAN_ANOMALY":279.6785,"EPHEMERIS_TYPE":0,"CLASSIFICATION_TYPE":"U","NORAD_CAT_ID":53403,"ELEMENT_SET_NO":999,"REV_AT_EPOCH":19846,"BSTAR":-9.0383444e-5,"MEAN_MOTION_DOT":-1.726e-5,"MEAN_MOTION_DDOT":0},{"OBJECT_NAME":"YUNYAO-1 43","OBJECT_ID":"2025-059A","EPOCH":"2026-03-09T23:54:24.516576","MEAN_MOTION":15.10329109,"ECCENTRICITY":0.00157026,"INCLINATION":97.608,"RA_OF_ASC_NODE":250.9377,"ARG_OF_PERICENTER":132.1084,"MEAN_ANOMALY":228.1483,"EPHEMERIS_TYPE":0,"CLASSIFICATION_TYPE":"U","NORAD_CAT_ID":63344,"ELEMENT_SET_NO":999,"REV_AT_EPOCH":5332,"BSTAR":0.00032498885,"MEAN_MOTION_DOT":5.279e-5,"MEAN_MOTION_DDOT":0}]
